GOES 1 (SMS-C) [-]      
1 08366U 75100A   23311.58696176  .00000051  00000+0  00000+0 0  9998
2 08366   7.0297 289.3436 0003790 292.8805 267.2117  1.00261993175659
GOES 2 [-]              
1 10061U 77048A   23312.48745184 -.00000019  00000+0  00000+0 0  9995
2 10061   8.6823 301.8688 0010642  27.9284 154.0670  0.99394223114051
GOES 3 [-]              
1 10953U 78062A   23311.62394642  .00000095  00000+0  00000+0 0  9999
2 10953   9.0609 306.7779 0002095 224.3668 157.7181  0.99358221119134
GOES 4 [-]              
1 11964U 80074A   23311.51599038  .00000043  00000+0  00000+0 0  9995
2 11964  10.0624 310.6152 0030457  87.9546  80.3765  0.99227725117980
GOES 5 [-]              
1 12472U 81049A   23311.50688602  .00000014  00000+0  00000+0 0  9996
2 12472  11.0703 322.4342 0002874 241.9464 260.5749  1.00214459113296
GOES 6 [-]              
1 14050U 83041A   23311.25089199  .00000046  00000+0  00000+0 0  9997
2 14050  11.7183 327.8655 0004312 194.2296 205.6215  1.00240200206460
GOES 7 [-]              
1 17561U 87022A   23310.52337350 -.00000233  00000+0  00000+0 0  9993
2 17561  13.7990 344.5289 0002436  97.8566  78.4208  0.99895362117450
GOES 8 [-]              
1 23051U 94022A   23310.82940122 -.00000065  00000+0  00000+0 0  9995
2 23051  13.6101  20.6143 0002983  80.1437 268.3768  0.98905794114698
GOES 9 [-]              
1 23581U 95025A   23311.68799295 -.00000034  00000+0  00000+0 0  9991
2 23581  13.1130  21.1400 0007687 148.9734 217.9589  0.98797995103347
GOES 10 [-]             
1 24786U 97019A   23309.93660729 -.00000140  00000+0  00000+0 0  9996
2 24786  12.0007  27.5280 0029866 211.6510 149.6994  0.99127098 96619
GOES 11 [-]             
1 26352U 00022A   23311.84245898  .00000056  00000+0  00000+0 0  9999
2 26352   9.7669  55.1383 0004366 183.3293 188.1421  0.99039349 85565
GOES 12 [-]             
1 26871U 01031A   23311.47802337 -.00000239  00000+0  00000+0 0  9996
2 26871  10.4373  44.7174 0003782 274.0756  63.9566  0.99141013 81318
EWS-G1 (GOES 13) [+]    
1 29155U 06018A   23311.74285616  .00000050  00000+0  00000+0 0  9999
2 29155   1.8728  89.1852 0005325 149.5419 136.6878  1.00270692 63961
GOES 14 [B]             
1 35491U 09033A   23312.47964906 -.00000053  00000+0  00000+0 0  9990
2 35491   0.2621 263.0315 0002187 263.4005 305.0741  1.00271999 52615
GOES 15 [B]             
1 36411U 10008A   23312.41273684  .00000047  00000+0  00000+0 0  9999
2 36411   0.2552 273.8913 0006429 330.2345  13.5936  1.00271179 50094
GOES 16 [+]             
1 41866U 16071A   23311.28357399 -.00000239  00000+0  00000+0 0  9999
2 41866   0.0382 275.5551 0001067   5.6519 151.9265  1.00269404 25541
GOES 17 [+]             
1 43226U 18022A   23310.95674333 -.00000083  00000+0  00000+0 0  9999
2 43226   0.0143  93.4436 0001904 127.1236  65.0985  1.00270107 20870
GOES 18 [+]             
1 51850U 22021A   23312.46957677  .00000109  00000+0  00000+0 0  9996
2 51850   0.0048 119.4772 0000336 108.1850 211.8033  1.00272570  6265
